FENGYUN 1C DEB
1 30564U 99025ALE 08039.95056607  .00000237  00000-0  16510-3 0  2374
2 30564 099.2244 034.1152 0235286 080.7905 281.9753 13.95111285 52021
FENGYUN 1C DEB
1 30565U 99025ALF 08038.87444029  .00000767  00000-0  62498-3 0  2682
2 30565 098.4731 356.0110 0180732 103.7015 258.4331 13.85044664 51493
FENGYUN 1C DEB
1 30566U 99025ALG 08039.36683413  .00000414  00000-0  33887-3 0  2948
2 30566 098.8797 017.5367 0086886 132.1495 228.7133 13.93192330 51804
FENGYUN 1C DEB
1 30567U 99025ALH 08039.90040233  .00000263  00000-0  18276-3 0  2561
2 30567 099.0710 033.1814 0115001 057.8759 303.3532 14.04153101 52071
FENGYUN 1C DEB
1 30568U 99025ALJ 08039.44031997  .00000929  00000-0  57451-3 0  1609
2 30568 099.0370 033.4249 0031290 070.3995 290.0537 14.07573012 52121
FENGYUN 1C DEB
1 30569U 99025ALK 08039.85437029  .00000624  00000-0  34488-3 0  2676
2 30569 098.7768 027.2647 0030090 336.6884 023.2923 14.14769283 52168
FENGYUN 1C DEB
1 30570U 99025ALL 08039.83805996  .00000210  00000-0  15072-3 0  2600
2 30570 098.8338 024.7190 0038451 185.6952 174.3783 14.06958125 51747
FENGYUN 1C DEB
1 30571U 99025ALM 08039.44144917  .00000087  00000-0  78394-4 0  1627
2 30571 098.8394 024.1706 0021409 152.9987 207.2328 14.06562315 51885
FENGYUN 1C DEB
1 30572U 99025ALN 08038.94322123  .00000065  00000-0  66480-4 0  1606
2 30572 098.8412 023.0482 0025433 144.0204 216.2797 14.05276221 51620
FENGYUN 1C DEB
1 30573U 99025ALP 08039.90282642  .00000359  00000-0  30740-3 0  3051
2 30573 098.9300 018.5462 0107847 184.0808 175.9427 13.90553399 51346
FENGYUN 1C DEB
1 30574U 99025ALQ 08039.40191642 -.00000122  00000-0 -91088-4 0  2250
2 30574 099.3427 013.2001 0261285 220.8871 137.2437 13.56328366 49827
FENGYUN 1C DEB
1 30575U 99025ALR 08039.52964660  .00000384  00000-0  19281-3 0  2580
2 30575 099.2568 053.0170 0061359 256.4457 102.9849 14.21884916 52176
FENGYUN 1C DEB
1 30576U 99025ALS 08039.97720554  .00000862  00000-0  40307-3 0  2407
2 30576 099.1610 046.5157 0141033 008.2608 352.0788 14.17932769 55230
FENGYUN 1C DEB
1 30577U 99025ALT 08038.45379681  .00000190  00000-0  14739-3 0  1527
2 30577 098.8825 023.3596 0031922 136.3901 223.9850 14.03750093 51571
FENGYUN 1C DEB
1 30578U 99025ALU 08038.95616042  .00001298  00000-0  86753-3 0  2579
2 30578 098.9887 027.0805 0065589 183.5617 176.5102 14.01761802 51480
FENGYUN 1C DEB
1 30579U 99025ALV 08038.92393723 -.00000187  00000-0 -96084-4 0  3113
2 30579 098.9369 024.1872 0049594 161.0611 199.2407 14.00490299 51401
THEMIS A
1 30580U 07004A   08039.45693657 -.00000240  00000-0  10000-3 0  2132
2 30580 011.1790 303.6880 7437088 014.9641 358.5029 01.25287632  2894
THEMIS B
1 30581U 07004B   08035.08333333 -.00002365  00000-0  00000+0 0  1448
2 30581 001.1222 354.6015 9189459 317.5143 356.6973 00.26375719  4799
THEMIS C
1 30582U 07004C   08038.12500000 -.00000884  00000-0  00000+0 0  2001
2 30582 005.6143 310.1544 8706587 003.9061 351.7526 00.50809065  2427
FENGYUN 1C DEB
1 30584U 99025ALW 08040.08895144  .00014115  00000-0  77173-3 0  3440
2 30584 098.8524 078.3614 0255310 159.9070 201.2252 14.90641065 57882
FENGYUN 1C DEB
1 30592U 99025ALX 08038.87226699  .00004635  00000-0  49021-3 0  2060
2 30592 097.8540 012.3837 0311910 226.9334 130.5600 14.60009853 56644
FENGYUN 1C DEB
1 30593U 99025ALY 08039.92341838  .00000499  00000-0  30202-3 0  2112
2 30593 102.3982 182.0970 0018335 027.7652 332.4415 14.13953211 54374
FENGYUN 1C DEB
1 30594U 99025ALZ 08038.99542298  .00000052  00000-0  43536-4 0  1560
2 30594 099.2161 045.3008 0202264 027.4811 333.6910 14.13762278 54285
FENGYUN 1C DEB
1 30595U 99025AMA 08039.53376103  .00004093  00000-0  39895-3 0  2182
2 30595 098.9272 071.5110 0256951 190.9397 168.5655 14.71527021 55570
FENGYUN 1C DEB
1 30596U 99025AMB 08039.42646424  .00000184  00000-0  68108-4 0  2274
2 30596 098.6985 030.8156 0274860 335.2603 023.5583 14.25509081 55508
FENGYUN 1C DEB
1 30597U 99025AMC 08038.94448788  .00001015  00000-0  50259-3 0  1858
2 30597 099.0598 038.1687 0151890 023.5966 337.2076 14.13728608 54225
FENGYUN 1C DEB
1 30598U 99025AMD 08039.38944820  .00008058  00000-0  39006-2 0  2521
2 30598 098.7893 028.0606 0090280 202.9690 156.7395 14.16587953 53788
FENGYUN 1C DEB
1 30599U 99025AME 08039.94053038  .00000213  00000-0  94212-4 0  1678
2 30599 098.9782 030.4841 0350414 039.0449 323.5353 14.04828385 53574
FENGYUN 1C DEB
1 30600U 99025AMF 08039.76389035  .00000639  00000-0  42013-3 0  1662
2 30600 098.4051 338.0315 0506398 134.3016 230.1025 13.55680090 51477
FENGYUN 1C DEB
1 30601U 99025AMG 08039.44980455  .00032979  00000-0  73226-2 0  3888
2 30601 100.0259 039.2603 0687073 184.7755 174.6304 13.66391341 51772
FENGYUN 1C DEB
1 30602U 99025AMH 08039.87912347  .00001107  00000-0  70486-3 0  2010
2 30602 099.0984 035.0986 0044291 081.1374 279.4788 14.05349162 53083
FENGYUN 1C DEB
1 30603U 99025AMJ 08039.84451932  .00000153  00000-0  18228-3 0  2438
2 30603 098.4604 347.5391 0204697 150.1578 211.1429 13.70812309 53431
FENGYUN 1C DEB
1 30604U 99025AMK 08039.98556877  .00000109  00000-0  61907-4 0  2173
2 30604 099.0938 043.0637 0227365 012.3284 348.3296 14.16593617 54884
FENGYUN 1C DEB
1 30605U 99025AML 08031.40601205 +.00023562 +00000-0 +57998-3 0 00731
2 30605 099.3846 094.4810 0378191 156.8682 205.0071 14.90605675054878
FENGYUN 1C DEB
1 30606U 99025AMM 08039.89344118  .00000281  00000-0  79365-4 0  2446
2 30606 098.6928 036.3147 0283315 312.2099 045.5313 14.33325879 54152
FENGYUN 1C DEB
1 30607U 99025AMN 08039.37660566  .00000889  00000-0  52579-3 0  2573
2 30607 098.8488 026.4454 0058230 201.1729 158.7039 14.09462348 50131
FENGYUN 1C DEB
1 30608U 99025AMP 08039.40864607  .00000504  00000-0  30267-3 0  2888
2 30608 098.7347 022.6546 0008139 101.6369 258.5695 14.11271457 51356
FENGYUN 1C DEB
1 30609U 99025AMQ 08038.83644704  .00000822  00000-0  69549-3 0  2630
2 30609 098.5488 358.4868 0158728 116.8839 244.8662 13.84429983 50223
FENGYUN 1C DEB
1 30610U 99025AMR 08039.56036636  .00002827  00000-0  15545-3 0  2737
2 30610 098.8690 077.0551 0313086 162.7113 198.4691 14.81844360 56456
FENGYUN 1C DEB
1 30611U 99025AMS 08039.98795799  .00000824  00000-0  83887-4 0  2130
2 30611 098.7067 053.4676 0350156 148.8418 213.4021 14.57713350 55374
FENGYUN 1C DEB
1 30612U 99025AMT 08039.01116793  .00000378  00000-0  11774-3 0  2012
2 30612 099.1421 061.1878 0145196 241.7710 116.8740 14.41727012 54778
FENGYUN 1C DEB
1 30613U 99025AMU 08038.94743442  .00000902  00000-0  26797-3 0  2228
2 30613 098.6971 030.3383 0275179 335.7008 023.1390 14.26180240 54232
FENGYUN 1C DEB
1 30614U 99025AMV 08037.89305825 +.00004625 +00000-0 +42450-2 0 01476
2 30614 100.0837 023.6049 0549316 259.3357 094.5409 13.30916462050181
FENGYUN 1C DEB
1 30616U 99025AMX 08038.79943728 +.00000104 +00000-0 +20368-3 0 01437
2 30616 098.6515 328.8232 0409360 252.1493 103.4590 13.25953063050989
FENGYUN 1C DEB
1 30617U 99025AMY 08040.08537889  .00025134  00000-0  11852-2 0  3271
2 30617 098.8987 083.0701 0239462 153.2615 208.0910 14.97594309 57278
FENGYUN 1C DEB
1 30619U 99025ANA 08039.42020744  .00000115  00000-0  46801-4 0  1269
2 30619 098.5000 025.3632 0242783 310.8950 047.1445 14.30913029 55081
FENGYUN 1C DEB
1 30621U 99025ANC 08038.85841656  .00000607  00000-0  55281-3 0  2360
2 30621 098.6671 000.4605 0180823 131.2430 230.4426 13.79632795 51988
FENGYUN 1C DEB
1 30622U 99025AND 08037.62500077  .00001213  00000-0  10564-2 0  1912
2 30622 100.9936 096.9360 0131556 233.0080 125.8938 13.84739502 52514
FENGYUN 1C DEB
1 30623U 99025ANE 08038.25222409 +.00000076 +00000-0 +16608-3 0 01274
2 30623 098.8825 336.1553 0415114 278.8533 076.5815 13.25146925048006
FENGYUN 1C DEB
1 30624U 99025ANF 08038.48409176  .00000600  00000-0  42638-3 0  1723
2 30624 098.8767 021.6364 0045255 144.4120 216.0094 14.00816253 51560
FENGYUN 1C DEB
1 30625U 99025ANG 08039.40209109  .00000935  00000-0  74182-3 0  1451
2 30625 098.8588 015.7289 0093308 158.9114 201.6059 13.91674783 51534
FENGYUN 1C DEB
1 30626U 99025ANH 08039.06106778  .00002084  00000-0  32948-3 0  2588
2 30626 099.0135 067.2172 0217052 221.5074 136.9467 14.59122895 53661
FENGYUN 1C DEB
1 30627U 99025ANJ 08039.00085350  .00001026  00000-0  35025-3 0  2556
2 30627 098.9883 049.2082 0118976 280.7067 078.0792 14.34843400 52799
FENGYUN 1C DEB
1 30628U 99025ANK 08039.48043174  .00000586  00000-0  29379-3 0  2675
2 30628 099.4030 058.3939 0044433 308.8084 050.9125 14.20394198 52327
FENGYUN 1C DEB
1 30629U 99025ANL 08038.75932202 +.00000691 +00000-0 +41061-3 0 01537
2 30629 099.3237 047.4673 0010887 049.2762 310.9400 14.11040498051735
FENGYUN 1C DEB
1 30630U 99025ANM 08038.99126714  .00000144  00000-0  11137-3 0  1543
2 30630 099.2558 042.9633 0029993 066.0232 294.4072 14.08235881 51879
FENGYUN 1C DEB
1 30631U 99025ANN 08038.95462462  .00000703  00000-0  42928-3 0  1535
2 30631 099.1209 037.0820 0066993 209.8521 149.8815 14.08286465 51944
FENGYUN 1C DEB
1 30632U 99025ANP 08039.90946748  .00000523  00000-0  32938-3 0  2593
2 30632 098.8651 027.0591 0024822 183.0435 177.0491 14.08468757 51992
FENGYUN 1C DEB
1 30633U 99025ANQ 08039.86701537  .00000386  00000-0  30943-3 0  2988
2 30633 098.4303 358.1418 0147664 086.2587 275.5394 13.90871013 51293
FENGYUN 1C DEB
1 30634U 99025ANR 08039.15940689  .00000721  00000-0  63091-3 0  2853
2 30634 099.0210 016.6760 0165069 134.9345 226.5335 13.82718373 50960
FENGYUN 1C DEB
1 30635U 99025ANS 08038.67108932  .00033793  00000-0  13200-2 0  4085
2 30635 098.8903 084.4816 0215427 148.4983 212.8700 15.06937497 54667
FENGYUN 1C DEB
1 30636U 99025ANT 08039.48683924  .00000639  00000-0  17170-3 0  2481
2 30636 098.8503 050.1569 0158885 241.5701 116.9362 14.44770443 53211
FENGYUN 1C DEB
1 30637U 99025ANU 08039.00422144  .00000745  00000-0  23992-3 0  2707
2 30637 099.0007 051.8581 0131761 271.2429 087.3661 14.37771861 52744
